[{"OBJECT_NAME":"TRANSPORTER-12 OBJECT G","OBJECT_ID":"2025-009G","EPOCH":"2026-03-09T17:57:00.262080","MEAN_MOTION":15.24410621,"ECCENTRICITY":0.00052883,"INCLINATION":97.3986,"RA_OF_ASC_NODE":149.8908,"ARG_OF_PERICENTER":330.1708,"MEAN_ANOMALY":29.9228,"EPHEMERIS_TYPE":0,"CLASSIFICATION_TYPE":"U","NORAD_CAT_ID":62615,"ELEMENT_SET_NO":999,"REV_AT_EPOCH":6364,"BSTAR":0.00034372065,"MEAN_MOTION_DOT":8.362e-5,"MEAN_MOTION_DDOT":0},{"OBJECT_NAME":"GAOFEN-14 02","OBJECT_ID":"2025-242A","EPOCH":"2026-03-09T22:45:15.300864","MEAN_MOTION":15.2569294,"ECCENTRICITY":9.85e-5,"INCLINATION":97.4192,"RA_OF_ASC_NODE":145.3638,"ARG_OF_PERICENTER":335.9045,"MEAN_ANOMALY":24.2147,"EPHEMERIS_TYPE":0,"CLASSIFICATION_TYPE":"U","NORAD_CAT_ID":66175,"ELEMENT_SET_NO":999,"REV_AT_EPOCH":2056,"BSTAR":0.00036713829,"MEAN_MOTION_DOT":9.284e-5,"MEAN_MOTION_DDOT":0}]
